[{"OBJECT_NAME":"GONETS-M 10","OBJECT_ID":"2014-036C","EPOCH":"2026-03-09T21:39:41.609952","MEAN_MOTION":12.42942435,"ECCENTRICITY":0.00223101,"INCLINATION":82.5163,"RA_OF_ASC_NODE":9.337,"ARG_OF_PERICENTER":1.6749,"MEAN_ANOMALY":358.4402,"EPHEMERIS_TYPE":0,"CLASSIFICATION_TYPE":"U","NORAD_CAT_ID":40063,"ELEMENT_SET_NO":999,"REV_AT_EPOCH":52991,"BSTAR":0.00015092789,"MEAN_MOTION_DOT":3.1e-7,"MEAN_MOTION_DDOT":0},{"OBJECT_NAME":"UNKNOWN","OBJECT_ID":"","EPOCH":"2026-03-07T15:14:38.135904","MEAN_MOTION":12.16567795,"ECCENTRICITY":0.01553184,"INCLINATION":102.6903,"RA_OF_ASC_NODE":34.9137,"ARG_OF_PERICENTER":56.4235,"MEAN_ANOMALY":305.1534,"EPHEMERIS_TYPE":0,"CLASSIFICATION_TYPE":"U","NORAD_CAT_ID":270013,"ELEMENT_SET_NO":999,"REV_AT_EPOCH":27886,"BSTAR":0.00073517667,"MEAN_MOTION_DOT":3.1e-7,"MEAN_MOTION_DDOT":0}]
